RISAT-1
1 38248U 12017A   18094.41452694  .00000119  00000-0  11399-4 0  9991
2 38248  97.5738 103.4337 0005921 112.8627  22.3100 15.09461587327164
